[{"OBJECT_NAME":"STARLINK-5829","OBJECT_ID":"2023-058AG","EPOCH":"2026-03-09T22:14:50.967456","MEAN_MOTION":15.05648812,"ECCENTRICITY":0.00017544,"INCLINATION":97.6042,"RA_OF_ASC_NODE":71.4736,"ARG_OF_PERICENTER":79.4273,"MEAN_ANOMALY":280.7151,"EPHEMERIS_TYPE":0,"CLASSIFICATION_TYPE":"U","NORAD_CAT_ID":56347,"ELEMENT_SET_NO":999,"REV_AT_EPOCH":15823,"BSTAR":2.3016145e-5,"MEAN_MOTION_DOT":2.71e-6,"MEAN_MOTION_DDOT":0},{"OBJECT_NAME":"FENGYUN 1C DEB","OBJECT_ID":"1999-025AHJ","EPOCH":"2026-03-09T18:03:49.415328","MEAN_MOTION":14.96033857,"ECCENTRICITY":0.01248359,"INCLINATION":98.7826,"RA_OF_ASC_NODE":350.0057,"ARG_OF_PERICENTER":174.7814,"MEAN_ANOMALY":185.4738,"EPHEMERIS_TYPE":0,"CLASSIFICATION_TYPE":"U","NORAD_CAT_ID":30496,"ELEMENT_SET_NO":999,"REV_AT_EPOCH":2444,"BSTAR":0.00050780955,"MEAN_MOTION_DOT":6.595e-5,"MEAN_MOTION_DDOT":0}]
